KONDOR-FKA NO. 1        
1 56756U 23074A   26066.42573583  .00007463  00000+0  35188-3 0  9999
2 56756  97.4394 262.4533 0001730  84.6258 275.5174 15.19772289154233
2024-205Q               
1 61908U 24205Q   26068.33502191  .00010555  00000+0  52830-3 0  9999
2 61908  97.4206 142.9783 0013202  51.3231 308.9181 15.17509239 73193
